Total gap duration: 6 days, 23:09:10.637220
Total gap duration: 6 days, 22:43:11.191565
STARLINK-5826
1 55782U 23028AT  24101.46012768 -.00000539  00000+0 -37365-4 0  9990
2 55782  69.9997 165.1257 0003007 272.0908  87.9907 14.98328060 62439
Total gap duration: 6 days, 22:25:30.905585
STARLINK-1485
1 45774U 20038AW  24101.18904319  .00001704  00000+0  13328-3 0  9994
2 45774  53.0543  92.3058 0001495  86.1142 274.0018 15.06403324212596
Total gap duration: 6 days, 22:17:38.675598
STARLINK-3285
1 50181U 21125AB  24100.83780883  .00001105  00000+0  87507-4 0  9995
2 50181  53.2162 146.4014 0001330  94.3652 265.7492 15.08840781131105
Total gap duration: 6 days, 22:14:19.491121
STARLINK-5972
1 56362U 23058AX  24100.76401495  .00000793  00000+0  66335-4 0  9998
2 56362  97.6574 102.6449 0001841 104.2906 255.8523 15.01253412 53275
Total gap duration: 6 days, 22:24:51.019257
STARLINK-1371
1 45542U 20025M   24101.14204641  .00011998  00000+0  82240-3 0  9995
2 45542  53.0559   2.5191 0001396  83.1073 277.0075 15.06426760219218
Total gap duration: 6 days, 22:13:03.238824
STARLINK-30953
1 58491U 23186U   24101.52028897  .00016770  00000+0  64952-3 0  9995
2 58491  42.9976 247.8739 0000790 307.2674  52.8105 15.25907143 20887
Total gap duration: 6 days, 22:12:56.897243
STARLINK-4004
1 52656U 22053A   24101.12439232  .00000199  00000+0  30606-4 0  9997
2 52656  53.2163  50.1089 0001356  87.7910 272.3237 15.08836127105650
Total gap duration: 6 days, 22:18:31.762491
STARLINK-5401
1 54870U 22177BC  24100.96991190  .00000689  00000+0  66082-4 0  9992
2 54870  43.0035 316.6295 0001401 269.9168  90.1514 15.02538305 70908
Total gap duration: 6 days, 22:02:35.592586
STARLINK-30198
1 57290U 23096A   24101.14506512  .00000847  00000+0  77733-4 0  9994
2 57290  43.0037  59.2511 0001068 276.8837  83.1883 15.02539216 41438
Total gap duration: 6 days, 22:04:18.927969
STARLINK-2033
1 47650U 21012AG  24100.99046572  .00004339  00000+0  30993-3 0  9992
2 47650  53.0548 308.1978 0001489  89.4989 270.6171 15.06412529174432
Total gap duration: 6 days, 22:17:46.610135
STARLINK-4340
1 53494U 22099AF  24101.24067335 -.00000563  00000+0 -39187-4 0  9992
2 53494  97.6541 223.0409 0004265 240.3818 119.6982 15.01268687 91439
Total gap duration: 6 days, 22:39:01.248927
STARLINK-3110
1 49420U 21104N   24100.80190147  .00006922  00000+0  45239-3 0  9998
2 49420  53.2157 126.5497 0001442  89.6658 270.4500 15.08852466133113
Total gap duration: 6 days, 22:15:13.749686
STARLINK-5546
1 55632U 23021E   24100.88414770  .00000750  00000+0  70634-4 0  9990
2 55632  69.9997 166.4053 0003341 270.0531  90.0245 14.98334720 63624
Total gap duration: 6 days, 22:22:20.151198
STARLINK-1879
1 47164U 20088AU  24101.22360314  .00016351  00000+0  11130-2 0  9992
2 47164  53.0533 177.1521 0001310  62.1702 297.9419 15.06435614187091
Total gap duration: 6 days, 22:17:56.905435
STARLINK-2295
1 48036U 21024BM  24101.34800488  .00008378  00000+0  58039-3 0  9996
2 48036  53.0580 226.5889 0001080  87.6664 272.4449 15.06417345168845
Total gap duration: 6 days, 22:17:27.171536
STARLINK-5397
1 54871U 22177BD  24100.77937626 -.00004011  00000+0 -28188-3 0  9995
2 54871  43.0038 317.7813 0001513 279.4366  80.6305 15.02555711 71970
Total gap duration: 6 days, 22:03:57.953193
STARLINK-5310
1 55272U 23010D   24101.17072866  .00002784  00000+0  23591-3 0  9995
2 55272  70.0008   5.7130 0002837 268.6839  91.3995 14.99161604 67848
Total gap duration: 6 days, 22:23:13.454709
STARLINK-1912
1 47178U 20088BJ  24101.51663154  .00004387  00000+0  31319-3 0  9995
2 47178  53.0563 195.8378 0000992 100.1673 259.9427 15.06401448186602
Total gap duration: 6 days, 22:18:19.811604
STARLINK-5683
1 55452U 23015D   24100.89797992  .00000911  00000+0  82464-4 0  9997
2 55452  43.0024 163.3702 0001127 276.9302  83.1412 15.02536263 65630
Total gap duration: 6 days, 22:02:11.029249
STARLINK-6170
1 57129U 23090AE  24101.24949925  .00000646  00000+0  62865-4 0  9996
2 57129  43.0055  97.2912 0000880 262.5570  97.5172 15.02537692 44353
Total gap duration: 6 days, 22:04:27.880488
STARLINK-4099
1 53146U 22083Q   24101.21359711  .00003246  00000+0  22210-3 0  9995
2 53146  53.2192  69.7014 0001495  98.4888 261.6274 15.08817541 96401
Total gap duration: 6 days, 22:19:51.785196
STARLINK-31188
1 58804U 24012T   24101.13046192  .00007446  00000+0  29417-3 0  9994
2 58804  42.9984 143.1873 0000233 212.6581 147.4255 15.25912352 14494
Total gap duration: 6 days, 22:18:33.367472
STARLINK-6204
1 56488U 23064AS  24101.21697142 -.00000455  00000+0 -30305-4 0  9996
2 56488  70.0004  65.7323 0002867 271.1235  88.9595 14.98328807 51969
Total gap duration: 6 days, 22:27:13.217961
STARLINK-4107
1 53287U 22086AX  24101.21634824 -.00000668  00000+0 -23896-4 0  9994
2 53287  53.2170  79.6852 0001416  89.4747 270.6407 15.08836367 95583
Total gap duration: 6 days, 22:17:51.569149
STARLINK-1289
1 45391U 20019AH  24101.53181256  .00000106  00000+0  26007-4 0  9998
2 45391  53.0555  40.7570 0001492  89.5931 270.5229 15.06400602224505
Total gap duration: 6 days, 22:17:45.222933
STARLINK-4500
1 53413U 22097AB  24101.46934683 -.00002230  00000+0 -12213-3 0  9997
2 53413  53.2189   8.5534 0001159  77.3065 282.8057 15.08829199 92752
Total gap duration: 6 days, 22:16:15.032516
STARLINK-5477
1 55659U 23021AH  24101.19663445 -.00000289  00000+0 -16399-4 0  9996
2 55659  69.9984 125.7449 0003100 270.4366  89.6438 14.98333476 64355
Total gap duration: 6 days, 22:26:24.383386
STARLINK-1990
1 47586U 21009AQ  24101.24203705  .00003163  00000+0  23117-3 0  9992
2 47586  53.0530 297.0677 0001258  83.1108 277.0024 15.06397773175859
Total gap duration: 6 days, 22:18:48.026097
STARLINK-1895
1 47175U 20088BF  24101.41895333  .00009988  00000+0  68820-3 0  9996
2 47175  53.0540 176.2715 0001594 102.4460 257.6708 15.06414352186874
Total gap duration: 6 days, 22:17:10.222924
STARLINK-4277
1 53009U 22076Z   24100.93850401  .00000187  00000+0  29814-4 0  9994
2 53009  53.2203 340.9343 0001193  95.6236 264.4892 15.08845758 97962
Total gap duration: 6 days, 22:21:21.069484
STARLINK-30570
1 58095U 23160W   24101.54761913  .00005534  00000+0  42396-3 0  9996
2 58095  43.0050 273.3768 0001738 276.2678  83.7966 15.02574771 27876
Total gap duration: 6 days, 22:03:49.069196
STARLINK-1571
1 46081U 20055BG  24100.95868920  .00002325  00000+0  17490-3 0  9990
2 46081  53.0556 353.3444 0001539  82.3084 277.8079 15.06399893203989
Total gap duration: 6 days, 22:16:59.984155
STARLINK-3558
1 52119U 22029AH  24101.34928969  .00002696  00000+0  18740-3 0  9996
2 52119  53.2170 334.0956 0001437  96.7244 263.3911 15.08847112115374
Total gap duration: 6 days, 22:19:36.396100
STARLINK-1614
1 46124U 20057H   24101.46917314  .00010818  00000+0  74361-3 0  9995
2 46124  53.0526 171.0532 0001335  73.0140 287.0995 15.06421319202057
Total gap duration: 6 days, 22:17:38.483561
STARLINK-5374
1 56144U 23046BE  24101.00482796  .00001243  00000+0  10704-3 0  9993
2 56144  43.0054 342.2521 0001245 265.1140  94.9560 15.02539012 57652
Total gap duration: 6 days, 22:03:17.552125
STARLINK-6309
1 56535U 23065AJ  24100.88025850  .00001562  00000+0  13067-3 0  9996
2 56535  43.0048  60.6669 0001291 264.1053  95.9642 15.02541330 51355
Total gap duration: 6 days, 22:03:34.498763
STARLINK-6351
1 57240U 23094Y   24100.72512660  .00002074  00000+0  16856-3 0  9993
2 57240  43.0055 215.6359 0001369 274.0726  85.9960 15.02540517 42121
Total gap duration: 6 days, 22:03:28.727119
STARLINK-31057
1 58545U 23192Q   24101.32458706  .00008255  00000+0  31019-3 0  9993
2 58545  53.1594  65.7928 0001286 112.5741 247.5395 15.28039513 20274
Total gap duration: 6 days, 22:28:52.991229
STARLINK-6351
1 57240U 23094Y   24100.72512660  .00002074  00000+0  16856-3 0  9993
2 57240  43.0055 215.6359 0001369 274.0726  85.9960 15.02540517 42121
Total gap duration: 6 days, 22:03:28.727119
STARLINK-30438
1 58035U 23156H   24101.23686894  .00001052  00000+0  50669-4 0  9999
2 58035  53.1126  88.8169 0002087  95.8519 264.2718 15.28021514 28958
Total gap duration: 6 days, 22:27:06.927754
STARLINK-31113
1 58668U 23211B   24101.17125538  .00025549  00000+0  98289-3 0  9995
2 58668  43.0007  64.2754 0000971 231.2031 128.8733 15.25918494 16980
Total gap duration: 6 days, 22:15:33.937346
STARLINK-5158
1 54055U 22136E   24100.40678126 -.00003053  00000+0 -17372-3 0  9999
2 54055  53.2200 243.4879 0001184 111.0900 249.0218 15.08853051 81276
Total gap duration: 6 days, 22:19:13.156554
STARLINK-30453
1 57910U 23146V   24101.15966764  .00001713  00000+0  14181-3 0  9999
2 57910  43.0029 148.5752 0001312 273.1651  86.9041 15.02540357 31897
Total gap duration: 6 days, 21:58:22.855515
STARLINK-5978
1 56769U 23078C   24101.02370076  .00001055  00000+0  96196-4 0  9991
2 56769  69.9997 326.0443 0002629 263.0140  97.0720 14.98325688 47797
Total gap duration: 6 days, 22:27:06.644191
STARLINK-31480
1 59306U 24056L   24101.25001157 -.00054696  00000+0 -37433-3 0  9993
2 59306  43.0013 261.1369 0001942 268.9522 175.5145 15.73838426  3653
Total gap duration: 6 days, 22:37:36.496136
STARLINK-2224
1 48573U 21041W   24101.16738191  .00002265  00000+0  17086-3 0  9998
2 48573  53.0567  27.4046 0001497 102.3636 257.7521 15.06414568160365
Total gap duration: 6 days, 22:18:42.670498
STARLINK-31384
1 58983U 24031U   24101.56020515  .00008627  00000+0  32374-3 0  9999
2 58983  53.1570 298.9308 0000092   9.7636 350.3366 15.28018121  9652
Total gap duration: 6 days, 22:31:41.669214
BLUEWALKER 3
1 53807U 22111AL  24100.86901507  .00006245  00000+0  26060-3 0  9996
2 53807  53.2365 148.1820 0007721 247.3050 112.7134 15.24947868 87807
Total gap duration: 6 days, 22:28:34.778052
STARLINK-1748
1 46570U 20070AQ  24100.92401965  .00026514  00000+0  72126-3 0  9992
2 46570  53.0271 341.6897 0003356 154.8113 205.3053 15.37367766195486
Total gap duration: 6 days, 22:31:31.608714
STARLINK-5156
1 53973U 22125K   24100.78945300  .00001258  00000+0  97118-4 0  9997
2 53973  53.2166 121.4835 0001463  91.3810 268.7350 15.08844320 83818
